NORAD_CAT_ID,OBJECT_NAME,OBJECT_TYPE,EPOCH,MEAN_MOTION,ECCENTRICITY,INCLINATION,RA_OF_ASC_NODE,ARG_OF_PERICENTER,MEAN_ANOMALY,BSTAR,MEAN_MOTION_DOT,MEAN_MOTION_DDOT,TLE_LINE0,TLE_LINE1,TLE_LINE2,SEMIMAJOR_AXIS,PERIOD,APOGEE,PERIGEE,DECAYED
51860.0,STARLINK-3559,PAYLOAD,2024-05-23 00:25:56,15.08845078,0.0001566,53.2173,72.5391,108.6719,251.4444,5.177e-05,5.36e-06,0.0,0 STARLINK-3559,1 51860U 22022J   24144.01801969  .00000536  00000-0  51770-4 0  9995,2 51860  53.2173  72.5391 0001566 108.6719 251.4444 15.08845078124131,6917.865,95.437,540.813,538.647,0.0
51860.0,STARLINK-3559,PAYLOAD,2024-05-23 19:30:34,15.08841789,0.0001292,53.2172,68.9723,87.2883,272.8257,-5.3355e-05,-1.137e-05,0.0,0 STARLINK-3559,1 51860U 22022J   24144.81290185 -.00001137  00000-0 -53355-4 0  9996,2 51860  53.2172  68.9723 0001292  87.2883 272.8257 15.08841789124255,6917.875,95.437,540.634,538.846,0.0
51860.0,STARLINK-3559,PAYLOAD,2024-05-24 01:52:06,15.08848694,0.0001486,53.2176,67.7851,97.0036,263.1125,7.8008e-05,9.54e-06,0.0,0 STARLINK-3559,1 51860U 22022J   24145.07785851  .00000954  00000-0  78008-4 0  9990,2 51860  53.2176  67.7851 0001486  97.0036 263.1125 15.08848694124295,6917.854,95.437,540.747,538.691,0.0
51860.0,STARLINK-3559,PAYLOAD,2024-05-24 19:21:22,15.08837049,0.0001491,53.2182,64.516,91.163,268.9532,8.3478e-05,1.041e-05,0.0,0 STARLINK-3559,1 51860U 22022J   24145.80650508  .00001041  00000-0  83478-4 0  9996,2 51860  53.2182  64.5160 0001491  91.1630 268.9532 15.08837049124401,6917.889,95.438,540.786,538.723,0.0
51860.0,STARLINK-3559,PAYLOAD,2024-05-24 22:32:08,15.08838645,0.0001363,53.217,63.9197,103.5601,256.5543,8.4368e-05,1.055e-05,0.0,0 STARLINK-3559,1 51860U 22022J   24145.93898368  .00001055  00000-0  84368-4 0  9992,2 51860  53.2170  63.9197 0001363 103.5601 256.5543 15.08838645124425,6917.885,95.438,540.692,538.807,0.0
51860.0,STARLINK-3559,PAYLOAD,2024-05-25 11:15:13,15.08838242,0.0001418,53.2169,61.5406,77.3541,282.761,6.1968e-05,6.98e-06,0.0,0 STARLINK-3559,1 51860U 22022J   24146.46890498  .00000698  00000-0  61968-4 0  9990,2 51860  53.2169  61.5406 0001418  77.3541 282.7610 15.08838242124500,6917.886,95.438,540.732,538.77,0.0
51860.0,STARLINK-3559,PAYLOAD,2024-05-26 04:44:28,15.08827406,0.0001293,53.2167,58.2704,113.5847,246.5281,-9.6338e-05,-1.82e-05,0.0,0 STARLINK-3559,1 51860U 22022J   24147.19755652 -.00001820  00000-0 -96338-4 0  9992,2 51860  53.2167  58.2704 0001293 113.5847 246.5281 15.08827406124619,6917.919,95.438,540.678,538.889,0.0
51860.0,STARLINK-3559,PAYLOAD,2024-05-27 02:59:51,15.08854958,0.0001108,53.2163,54.1071,117.0787,243.0319,0.00035643,5.392e-05,0.0,0 STARLINK-3559,1 51860U 22022J   24148.12490569  .00005392  00000-0  35643-3 0  9996,2 51860  53.2163  54.1071 0001108 117.0787 243.0319 15.08854958124755,6917.835,95.437,540.466,538.933,0.0
51860.0,STARLINK-3559,PAYLOAD,2024-05-27 10:56:47,15.08844043,0.0001917,53.2174,52.615,138.3329,221.781,0.00032396,4.872e-05,0.0,0 STARLINK-3559,1 51860U 22022J   24148.45610911  .00004872  00000-0  32396-3 0  9991,2 51860  53.2174  52.6150 0001917 138.3329 221.7810 15.08844043124803,6917.868,95.437,541.059,538.407,0.0
51860.0,STARLINK-3559,PAYLOAD,2024-05-27 22:04:29,15.08843929,0.0001917,53.2167,50.5356,132.6784,227.437,0.00023995,3.533e-05,0.0,0 STARLINK-3559,1 51860U 22022J   24148.91979016  .00003533  00000-0  23995-3 0  9994,2 51860  53.2167  50.5356 0001917 132.6784 227.4370 15.08843929124875,6917.868,95.437,541.06,538.407,0.0
51860.0,STARLINK-3559,PAYLOAD,2024-05-28 10:47:34,15.08851582,0.0001315,53.2171,48.1595,90.5497,269.5646,0.00028135,4.194e-05,0.0,0 STARLINK-3559,1 51860U 22022J   24149.44970797  .00004194  00000-0  28135-3 0  9995,2 51860  53.2171  48.1595 0001315  90.5497 269.5646 15.08851582124959,6917.845,95.437,540.62,538.8,0.0
51860.0,STARLINK-3559,PAYLOAD,2024-05-28 21:55:16,15.08847203,0.0001565,53.2186,46.0639,90.7914,269.3258,7.5643e-05,9.16e-06,0.0,0 STARLINK-3559,1 51860U 22022J   24149.91338701  .00000916  00000-0  75643-4 0  9995,2 51860  53.2186  46.0639 0001565  90.7914 269.3258 15.08847203125025,6917.858,95.437,540.806,538.641,0.0
51860.0,STARLINK-3559,PAYLOAD,2024-05-29 02:41:25,15.08849698,0.0001517,53.2172,45.1805,108.5247,251.591,8.7711e-05,1.109e-05,0.0,0 STARLINK-3559,1 51860U 22022J   24150.11210460  .00001109  00000-0  87711-4 0  9994,2 51860  53.2172  45.1805 0001517 108.5247 251.5910 15.08849698125050,6917.851,95.437,540.765,538.666,0.0
51860.0,STARLINK-3559,PAYLOAD,2024-05-29 20:10:40,15.08843098,0.0001557,53.2172,41.9064,114.6184,245.4971,6.1217e-05,6.86e-06,0.0,0 STARLINK-3559,1 51860U 22022J   24150.84074730  .00000686  00000-0  61217-4 0  9994,2 51860  53.2172  41.9064 0001557 114.6184 245.4971 15.08843098125162,6917.871,95.437,540.813,538.659,0.0
51860.0,STARLINK-3559,PAYLOAD,2024-05-29 21:46:03,15.08849315,0.0001339,53.217,41.6091,88.2331,271.8815,-3.7589e-05,-8.86e-06,0.0,0 STARLINK-3559,1 51860U 22022J   24150.90698649 -.00000886  00000-0 -37589-4 0  9991,2 51860  53.2170  41.6091 0001339  88.2331 271.8815 15.08849315125174,6917.852,95.437,540.643,538.791,0.0
51860.0,STARLINK-3559,PAYLOAD,2024-05-29 23:21:26,15.08848727,0.0001279,53.2174,41.3119,96.9591,263.1547,-3.8087e-05,-8.94e-06,0.0,0 STARLINK-3559,1 51860U 22022J   24150.97322587 -.00000894  00000-0 -38087-4 0  9996,2 51860  53.2174  41.3119 0001279  96.9591 263.1547 15.08848727125186,6917.854,95.437,540.604,538.834,0.0
51860.0,STARLINK-3559,PAYLOAD,2024-05-30 21:36:50,15.08844875,0.0001598,53.2181,37.1494,103.3092,256.8078,8.9532e-05,1.137e-05,0.0,0 STARLINK-3559,1 51860U 22022J   24151.90058322  .00001137  00000-0  89532-4 0  9993,2 51860  53.2181  37.1494 0001598 103.3092 256.8078 15.08844875125320,6917.865,95.437,540.836,538.625,0.0
51860.0,STARLINK-3559,PAYLOAD,2024-05-31 02:22:59,15.08844879,0.0001721,53.2186,36.2599,110.689,249.4287,7.5722e-05,9.17e-06,0.0,0 STARLINK-3559,1 51860U 22022J   24152.09930295  .00000917  00000-0  75722-4 0  9993,2 51860  53.2186  36.2599 0001721 110.6890 249.4287 15.08844879125353,6917.865,95.437,540.921,538.54,0.0
51860.0,STARLINK-3559,PAYLOAD,2024-05-31 21:27:38,15.08820043,0.0001312,53.2178,32.6997,87.5417,272.5725,-0.00011162,-2.063e-05,0.0,0 STARLINK-3559,1 51860U 22022J   24152.89419508 -.00002063  00000-0 -11162-3 0  9993,2 51860  53.2178  32.6997 0001312  87.5417 272.5725 15.08820043125473,6917.941,95.439,540.714,538.899,0.0
51860.0,STARLINK-3559,PAYLOAD,2024-05-31 23:03:01,15.08821029,0.0001328,53.2179,32.4023,96.3335,263.7808,-0.00010257,-1.919e-05,0.0,0 STARLINK-3559,1 51860U 22022J   24152.96043439 -.00001919  00000-0 -10257-3 0  9990,2 51860  53.2179  32.4023 0001328  96.3335 263.7808 15.08821029125486,6917.938,95.439,540.722,538.885,0.0
51860.0,STARLINK-3559,PAYLOAD,2024-06-01 14:56:53,15.08827461,0.0001323,53.2186,29.427,89.7661,270.3483,-0.00014423,-2.582e-05,0.0,0 STARLINK-3559,1 51860U 22022J   24153.62283812 -.00002582  00000-0 -14423-3 0  9991,2 51860  53.2186  29.4270 0001323  89.7661 270.3483 15.08827461125587,6917.919,95.438,540.699,538.868,0.0
51860.0,STARLINK-3559,PAYLOAD,2024-06-01 21:18:24,15.08828399,0.0001329,53.2176,28.2375,88.1286,271.9858,-0.00024244,-4.143e-05,0.0,0 STARLINK-3559,1 51860U 22022J   24153.88778816 -.00004143  00000-0 -24244-3 0  9999,2 51860  53.2176  28.2375 0001329  88.1286 271.9858 15.08828399125620,6917.916,95.438,540.7,538.861,0.0
51860.0,STARLINK-3559,PAYLOAD,2024-06-01 22:53:47,15.08830661,0.0001273,53.2178,27.9408,89.9591,270.1547,-0.00019659,-3.414e-05,0.0,0 STARLINK-3559,1 51860U 22022J   24153.95402710 -.00003414  00000-0 -19659-3 0  9998,2 51860  53.2178  27.9408 0001273  89.9591 270.1547 15.08830661125633,6917.909,95.438,540.655,538.893,0.0
51860.0,STARLINK-3559,PAYLOAD,2024-06-03 00:19:58,15.08833323,0.0001261,53.2179,23.1828,86.3147,273.7989,0.00041211,6.276e-05,0.0,0 STARLINK-3559,1 51860U 22022J   24155.01387277  .00006276  00000-0  41211-3 0  9993,2 51860  53.2179  23.1828 0001261  86.3147 273.7989 15.08833323125797,6917.901,95.438,540.638,538.893,0.0
51860.0,STARLINK-3559,PAYLOAD,2024-06-03 08:16:54,15.08837256,0.0001249,53.2178,21.6961,87.3913,272.7222,0.00038603,5.861e-05,0.0,0 STARLINK-3559,1 51860U 22022J   24155.34507453  .00005861  00000-0  38603-3 0  9999,2 51860  53.2178  21.6961 0001249  87.3913 272.7222 15.08837256125849,6917.889,95.438,540.618,538.89,0.0
51860.0,STARLINK-3559,PAYLOAD,2024-06-03 20:59:59,15.08844843,0.0001111,53.218,19.3156,90.3331,269.7789,0.00049656,7.625e-05,0.0,0 STARLINK-3559,1 51860U 22022J   24155.87499298  .00007625  00000-0  49656-3 0  9994,2 51860  53.2180  19.3156 0001111  90.3331 269.7789 15.08844843125921,6917.866,95.437,540.499,538.962,0.0
51860.0,STARLINK-3559,PAYLOAD,2024-06-04 08:07:41,15.08840992,0.0001736,53.2173,17.2344,78.315,281.8037,0.00014659,2.046e-05,0.0,0 STARLINK-3559,1 51860U 22022J   24156.33867321  .00002046  00000-0  14659-3 0  9999,2 51860  53.2173  17.2344 0001736  78.3150 281.8037 15.08840992125996,6917.877,95.437,540.943,538.541,0.0
51860.0,STARLINK-3559,PAYLOAD,2024-06-04 20:50:46,15.08848967,0.0002041,53.2052,14.8545,81.9299,278.1925,0.00029666,4.438e-05,0.0,0 STARLINK-3559,1 51860U 22022J   24156.86859126  .00004438  00000-0  29666-3 0  9992,2 51860  53.2052  14.8545 0002041  81.9299 278.1925 15.08848967126077,6917.853,95.437,541.13,538.306,0.0
51860.0,STARLINK-3559,PAYLOAD,2024-06-05 07:58:28,15.08844889,0.0001133,53.2172,12.7736,78.9647,281.1472,0.00022842,3.35e-05,0.0,0 STARLINK-3559,1 51860U 22022J   24157.33227142  .00003350  00000-0  22842-3 0  9993,2 51860  53.2172  12.7736 0001133  78.9647 281.1472 15.08844889126141,6917.865,95.437,540.514,538.947,0.0
51860.0,STARLINK-3559,PAYLOAD,2024-06-05 20:41:33,15.08843529,0.000172,53.2122,10.3927,94.5531,265.5658,0.00025627,3.793e-05,0.0,0 STARLINK-3559,1 51860U 22022J   24157.86219402  .00003793  00000-0  25627-3 0  9996,2 51860  53.2122  10.3927 0001720  94.5531 265.5658 15.08843529126221,6917.87,95.437,540.924,538.545,0.0
